ESTCUBE 1               
1 39161U 13021C   22038.45541127  .00000772  00000+0  12870-3 0  9997
2 39161  97.9213 119.0450 0010523 114.0332 246.2012 14.72667612470334
FENGYUN 3C              
1 39260U 13052A   22038.59846357  .00000095  00000+0  69353-4 0  9996
2 39260  98.4706  73.1840 0010040 292.2860  67.7250 14.15898647433542
CASSIOPE                
1 39265U 13055A   22038.51656969  .00013555  00000+0  37144-3 0  9991
2 39265  80.9656  44.7919 0635636 342.5499  15.4692 14.35413429433654
ZACUBE-1 (TSHEPISOSAT)  
1 39417U 13066B   22038.19914202  .00001363  00000+0  17370-3 0  9996
2 39417  97.6211  15.7502 0059734 111.0793 249.6821 14.81820444443832
CINEMA-3 (KHUSAT-2)     
1 39426U 13066L   22038.06837227  .00000972  00000+0  15827-3 0  9993
2 39426  97.7860 343.8002 0102506 293.9360  65.1137 14.69871605440388
TRITON-1                
1 39427U 13066M   22038.55183080  .00001632  00000+0  26428-3 0  9992
2 39427  97.8025 340.1317 0111946 320.4538  38.8538 14.68525678439906
DELFI-N3XT              
1 39428U 13066N   22038.06813593  .00002798  00000+0  44253-3 0  9998
2 39428  97.8049 338.1881 0118468 335.2812  24.2744 14.68463018439571
GOMX-1                  
1 39430U 13066Q   22038.44604478  .00000833  00000+0  15711-3 0  9998
2 39430  97.8165 313.0541 0151471  94.5484 267.3035 14.59838262437320
BRITE-PL1 (LEM)         
1 39431U 13066R   22038.11932213  .00000386  00000+0  92853-4 0  9990
2 39431  97.7186 263.2742 0200496 272.4787  85.3469 14.47229519433711
ICUBE-1                 
1 39432U 13066S   22038.50673042  .00002446  00000+0  24876-3 0  9994
2 39432  97.4700  49.0873 0030913 341.4348  18.5741 14.91297409446549
HUMSAT-D                
1 39433U 13066T   22038.00422387  .00003223  00000+0  30935-3 0  9991
2 39433  97.4576  56.0128 0028810 319.0622  40.8435 14.93448889446923
VELOX-PII               
1 39438U 13066Y   22037.89791431  .00000956  00000+0  13262-3 0  9995
2 39438  97.6751   6.4247 0070393 160.6013 199.7903 14.78471681441718
FIRST-MOVE              
1 39439U 13066Z   22037.90745468  .00002817  00000+0  33851-3 0  9991
2 39439  97.6243  17.4765 0065499 108.5466 252.2879 14.83187070442693
CUBEBUG-2 (LO-74)       
1 39440U 13066AA  22037.88765411  .00001072  00000+0  15337-3 0  9991
2 39440  97.7095   1.1149 0078961 194.0286 165.8732 14.76536288441018
NEE-02 KRYSAOR          
1 39441U 13066AB  22038.39413640  .00000745  00000+0  11151-3 0  9999
2 39441  97.7203 358.8474 0080418 205.0953 154.6339 14.75397144442012
FUNCUBE-1 (AO-73)       
1 39444U 13066AE  22038.17071937  .00001729  00000+0  21381-3 0  9996
2 39444  97.6099  18.1163 0058815 100.4382 260.3468 14.82789713442808
HINCUBE                 
1 39445U 13066AF  22038.47589266  .00001616  00000+0  20103-3 0  9995
2 39445  97.6115  18.2395 0058859 101.4722 259.3110 14.82610020442393
UWE-3                   
1 39446U 13066AG  22037.86392228  .00001153  00000+0  15634-3 0  9997
2 39446  97.6688   7.7546 0069866 153.9623 206.5131 14.79074696441151
AIST-1 (RS-41)          
1 39492U 13078C   22038.42789943  .00000807  00000+0  84604-4 0  9997
2 39492  82.4211   1.0063 0019723 172.1978 187.9566 14.88192976440447
SPROUT                  
1 39770U 14029E   22038.30826401  .00004691  00000+0  49998-3 0  9992
2 39770  97.9295 154.7353 0009329 149.3537 210.8231 14.89336917418283
UNISAT-6                
1 40012U 14033C   22038.11015497  .00001207  00000+0  18404-3 0  9990
2 40012  97.6622 233.0440 0056909 220.1172 139.5829 14.74548552410772
BUGSAT-1 (TITA)         
1 40014U 14033E   22038.54393061  .00002452  00000+0  22137-3 0  9996
2 40014  98.1323  31.7630 0032773 105.9637 254.5193 14.96113844416719
DUCHIFAT-1              
1 40021U 14033M   22038.13088309  .00003339  00000+0  33544-3 0  9994
2 40021  97.9988 346.1931 0014117 108.2617 252.0138 14.91906007415261
NANOSATC-BR1            
1 40024U 14033Q   22038.37809056  .00002620  00000+0  27109-3 0  9995
2 40024  97.9737 340.4643 0013396 113.0067 247.2565 14.90913892415117
QB50P1                  
1 40025U 14033R   22038.52606790  .00001398  00000+0  15129-3 0  9993
2 40025  97.9509 335.0711 0013525 121.1628 239.0918 14.89836264414922
DTUSAT-2                
1 40030U 14033W   22037.79570689  .00001733  00000+0  18836-3 0  9995
2 40030  97.9305 330.1716 0012982 119.9965 240.2542 14.89351043414191
QB50P2                  
1 40032U 14033Y   22037.76507946  .00001891  00000+0  20514-3 0  9991
2 40032  97.9310 330.1517 0012885 121.1546 239.0936 14.89315172414163
POLYITAN-1              
1 40042U 14033AJ  22038.40174132  .00001821  00000+0  19569-3 0  9992
2 40042  97.9609 335.9789 0015801 114.2484 246.0386 14.89726454414799
TIGRISAT                
1 40043U 14033AK  22038.10201370  .00000957  00000+0  14658-3 0  9998
2 40043  97.6577 234.3859 0058657 217.6853 142.0241 14.74723070410713
AISAT                   
1 40054U 14034B   22038.02527754  .00002262  00000+0  31417-3 0  9992
2 40054  98.3441 204.4064 0012825  17.8767 342.2892 14.78899384410194
CANX-4                  
1 40055U 14034C   22037.98307371  .00000622  00000+0  10001-3 0  9992
2 40055  98.3348 190.8409 0015166  56.2678 303.9972 14.75198645409517
CANX-5                  
1 40056U 14034D   22037.92122190  .00000634  00000+0  10178-3 0  9999
2 40056  98.3349 190.7598 0015182  56.6432 303.6227 14.75191964400289
VELOX-I                 
1 40057U 14034E   22038.19687610  .00001596  00000+0  22583-3 0  9994
2 40057  98.3493 205.7045 0011375  32.6844 327.5086 14.78544505410224
METEOR-M 2              
1 40069U 14037A   22038.59545240  .00000015  00000+0  26257-4 0  9994
2 40069  98.4422  62.2568 0005529 352.4175   7.6926 14.20697012393420
DX1                     
1 40071U 14037C   22038.47984364  .00000635  00000+0  88190-4 0  9990
2 40071  98.4272 260.6168 0008968  22.5297 337.6300 14.81649191410093
UKUBE-1                 
1 40074U 14037F   22038.38522737  .00001590  00000+0  19393-3 0  9994
2 40074  98.4017 272.1512 0004631   3.8315 356.2944 14.84887672410766
FIREBIRD 3              
1 40377U 15003B   22037.80425287  .00013672  00000+0  45480-3 0  9992
2 40377  99.1132 233.9904 0110690 106.0788 255.2666 15.25533376388477
FIREBIRD 4              
1 40378U 15003C   22037.77146211  .00013451  00000+0  44654-3 0  9993
2 40378  99.1135 234.1335 0110643 105.9041 255.4418 15.25607999388470
GRIFEX                  
1 40379U 15003D   22038.44536632  .00010405  00000+0  39397-3 0  9993
2 40379  99.1170 222.1571 0122977 141.8034 219.1990 15.20312310387862
CP10 (EXOCUBE)          
1 40380U 15003E   22037.43876595  .00012255  00000+0  49372-3 0  9997
2 40380  99.1206 214.3711 0129146 167.1022 193.3563 15.17617691387276
DEORBITSAIL             
1 40719U 15032E   22037.92513051  .00001875  00000+0  26748-3 0  9992
2 40719  97.8009 280.5289 0017518  69.0521 291.2563 14.77782456354602
NUDT-PHONESAT           
1 40900U 15049B   22038.39291108  .00019237  00000+0  66761-3 0  9990
2 40900  97.4106  56.2670 0012274  37.5152  69.3615 15.29757137354691
XW-2A                   
1 40903U 15049E   22038.43787541  .00016496  00000+0  31247-3 0  9994
2 40903  97.2035  97.1380 0009941 230.4649 228.1473 15.48376493359119
XW-2C                   
1 40906U 15049H   22038.44489470  .00004451  00000+0  22395-3 0  9990
2 40906  97.4927  43.0520 0016169  90.7493  51.7793 15.17621380353195
XW-2D                   
1 40907U 15049J   22038.10580920  .00005056  00000+0  25083-3 0  9995
2 40907  97.4913  42.6087 0015542  88.2669 344.4671 15.18058448353181
LILACSAT-2              
1 40908U 15049K   22038.48267969  .00002731  00000+0  14951-3 0  9991
2 40908  97.5140  40.4616 0017296 104.2158  46.8104 15.14955724352800
XW-2E                   
1 40909U 15049L   22038.45175832  .00007968  00000+0  36116-3 0  9990
2 40909  97.4677  47.2552 0014515  73.1967  69.5092 15.21020192353632
XW-2F                   
1 40910U 15049M   22038.46709005  .00008048  00000+0  37002-3 0  9993
2 40910  97.4738  46.3755 0015542  72.8025  70.8995 15.20511777353415
XW-2B                   
1 40911U 15049N   22038.52614811  .00005316  00000+0  26423-3 0  9991
2 40911  97.4903  43.6635 0015466  87.8372  31.1940 15.17971136353137
KAITUO 1B               
1 40912U 15049P   22038.52220259  .00009253  00000+0  39223-3 0  9997
2 40912  97.4418  50.8021 0015074  44.8631 106.3454 15.23253522353958
TIANWANG 1A (TW-1A)     
1 40928U 15051D   22038.55055825  .00026515  00000+0  46053-3 0  9994
2 40928  97.0570  63.1600 0010038 135.1218  15.8563 15.50754188358055
LAPAN-A2                
1 40931U 15052B   22038.51207342  .00000886  00000+0  34166-4 0  9994
2 40931   5.9967  15.9582 0013094 125.9319 234.2302 14.76728748344104
LQSAT                   
1 40958U 15057A   22038.41275386  .00000289  00000+0  51979-4 0  9998
2 40958  97.7708  90.3232 0018813  24.1038 336.1051 14.73250635340837
ATHENOXAT 1             
1 41168U 15077C   22038.02824162  .00010563  00000+0  47440-3 0  9996
2 41168  14.9856 334.4676 0008168 210.0887 249.1513 15.17581467340442
GALASSIA                
1 41170U 15077E   22038.43390831  .00007955  00000+0  34848-3 0  9994
2 41170  14.9895 321.8539 0011716 246.1633 113.7460 15.17576244340587
VELOX-II                
1 41171U 15077F   22038.13145296  .00006581  00000+0  31700-3 0  9993
2 41171  14.9927  31.1125 0008258  93.8918 266.2347 15.13746630339889
CHUBUSAT-2              
1 41338U 16012B   22038.53331084  .00001737  00000+0  12655-3 0  9990
2 41338  31.0027 130.7735 0013568 304.2639  55.6711 15.00852859327943
CHUBUSAT-3              
1 41339U 16012C   22038.53485371  .00001758  00000+0  12780-3 0  9992
2 41339  31.0106 127.7705 0013551 313.5123  46.4401 15.00974429327940
HORYU-4                 
1 41340U 16012D   22037.59437590  .00003101  00000+0  22173-3 0  9990
2 41340  31.0049 114.2265 0013591 339.4235  20.5853 15.02426637328024
